0 XM-2
1 26724U 01012A   13281.61075728 -.00000034  00000-0  10000-3 0  6254
2 26724 000.1766 284.0706 0003546 035.9658 161.9995 01.00271697 46085
0 XM-2
1 26724U 01012A   13283.06134015 -.00000039  00000-0  10000-3 0  6266
2 26724 000.1740 284.1216 0003485 035.3354 326.2168 01.00271802 46090
0 XM-2
1 26724U 01012A   13285.40186375 -.00000046  00000-0  10000-3 0  6282
2 26724 000.1729 283.8557 0003209 036.6960 090.0095 01.00271340 46128
0 XM-2
1 26724U 01012A   13286.43189468 -.00000048  00000-0  10000-3 0  6295
2 26724 000.1709 283.8768 0003172 036.4706 102.0382 01.00271510 46138
0 XM-2
1 26724U 01012A   13288.35925549 -.00000048  00000-0  10000-3 0  6308
2 26724 000.1686 283.5607 0003001 025.8884 088.6853 01.00271740 46150
0 XM-2
1 26724U 01012A   13289.39566416 -.00000047  00000-0  10000-3 0  6317
2 26724 000.1703 282.7303 0003340 034.1737 095.3529 01.00271795 46166
0 XM-2
1 26724U 01012A   13290.40465519 -.00000045  00000-0  10000-3 0  6322
2 26724 000.1683 282.8660 0003335 033.9391 099.6837 01.00272023 46172
0 XM-2
1 26724U 01012A   13292.55061157 -.00000041  00000-0  10000-3 0  6337
2 26724 000.1661 282.6178 0003877 033.3913 155.1334 01.00272329 46196
0 XM-2
1 26724U 01012A   13293.38755388 -.00000039  00000-0  10000-3 0  6343
2 26724 000.1545 284.4097 0003407 034.1187 094.7530 01.00272795 46203
0 XM-2
1 26724U 01012A   13294.64077793 -.00000037  00000-0  10000-3 0  6359
2 26724 000.1545 284.0017 0003407 033.6584 188.0179 01.00272890 46219
0 XM-2
1 26724U 01012A   13295.40818150 -.00000036  00000-0  10000-3 0  6364
2 26724 000.1656 282.3377 0003710 031.4137 108.9411 01.00272753 46228
